{
  "type": "FeatureCollection",
  "features": [
    {
      "type": "Feature",
      "properties": {
        "norad_id": 24946,
        "name": "IRIDIUM 33",
        "group": "iridium-33-debris",
        "lat": -77.02202559621517,
        "lon": 46.23506678039049,
        "alt_km": 786.1811970565595,
        "timestamp": "2025-12-27T04:40:45.889652+00:00",
        "meta_object_name": "IRIDIUM 33",
        "meta_object_id": "1997-051C",
        "meta_epoch": "2025-12-26T22:20:48.769728",
        "meta_mean_motion": 14.35047197,
        "meta_eccentricity": 0.00086906,
        "meta_inclination": 86.3856,
        "meta_ra_of_asc_node": 62.264,
        "meta_arg_of_pericenter": 155.1188,
        "meta_mean_anomaly": 205.0429,
        "meta_ephemeris_type": 0,
        "meta_classification_type": "U",
        "meta_norad_cat_id": 24946,
        "meta_element_set_no": 999,
        "meta_rev_at_epoch": 48038,
        "meta_bstar": 0.00012641632,
        "meta_mean_motion_dot": 3.8e-06,
        "meta_mean_motion_ddot": 0,
        "tle_line1": "1 24946U 97051C   25360.93112002  .00000380  00000+0  12642-3 0  9999",
        "tle_line2": "2 24946  86.3856  62.2640 0008690 155.1188 205.0429 14.35047197480381"
      },
      "geometry": {
        "type": "Point",
        "coordinates": [
          46.23506678039049,
          -77.02202559621517
        ]
      }
    },
    {
      "type": "Feature",
      "properties": {
        "norad_id": 33773,
        "name": "IRIDIUM 33 DEB",
        "group": "iridium-33-debris",
        "lat": -52.93136925762026,
        "lon": 49.68225517633225,
        "alt_km": 763.5288083548639,
        "timestamp": "2025-12-27T04:40:45.889691+00:00",
        "meta_object_name": "IRIDIUM 33 DEB",
        "meta_object_id": "1997-051L",
        "meta_epoch": "2025-12-26T13:56:59.891136",
        "meta_mean_motion": 14.43285398,
        "meta_eccentricity": 0.0013338,
        "meta_inclination": 86.3996,
        "meta_ra_of_asc_node": 54.7233,
        "meta_arg_of_pericenter": 106.7873,
        "meta_mean_anomaly": 253.4792,
        "meta_ephemeris_type": 0,
        "meta_classification_type": "U",
        "meta_norad_cat_id": 33773,
        "meta_element_set_no": 999,
        "meta_rev_at_epoch": 88547,
        "meta_bstar": 0.00030304,
        "meta_mean_motion_dot": 1.041e-05,
        "meta_mean_motion_ddot": 0,
        "tle_line1": "1 33773U 97051L   25360.58124874  .00001041  00000+0  30304-3 0  9998",
        "tle_line2": "2 33773  86.3996  54.7233 0013338 106.7873 253.4792 14.43285398885471"
      },
      "geometry": {
        "type": "Point",
        "coordinates": [
          49.68225517633225,
          -52.93136925762026
        ]
      }
    },
    {
      "type": "Feature",
      "properties": {
        "norad_id": 33775,
        "name": "IRIDIUM 33 DEB",
        "group": "iridium-33-debris",
        "lat": -62.20545940730633,
        "lon": 36.44947425181026,
        "alt_km": 771.7418467841235,
        "timestamp": "2025-12-27T04:40:45.889706+00:00",
        "meta_object_name": "IRIDIUM 33 DEB",
        "meta_object_id": "1997-051N",
        "meta_epoch": "2025-12-26T21:28:14.646144",
        "meta_mean_motion": 14.41498944,
        "meta_eccentricity": 0.00153961,
        "meta_inclination": 86.3623,
        "meta_ra_of_asc_node": 43.5095,
        "meta_arg_of_pericenter": 112.7487,
        "meta_mean_anomaly": 67.1996,
        "meta_ephemeris_type": 0,
        "meta_classification_type": "U",
        "meta_norad_cat_id": 33775,
        "meta_element_set_no": 999,
        "meta_rev_at_epoch": 88344,
        "meta_bstar": 0.00036931903,
        "meta_mean_motion_dot": 1.22e-05,
        "meta_mean_motion_ddot": 0,
        "tle_line1": "1 33775U 97051N   25360.89461396  .00001220  00000+0  36932-3 0  9999",
        "tle_line2": "2 33775  86.3623  43.5095 0015396 112.7487  67.1996 14.41498944883448"
      },
      "geometry": {
        "type": "Point",
        "coordinates": [
          36.44947425181026,
          -62.20545940730633
        ]
      }
    },
    {
      "type": "Feature",
      "properties": {
        "norad_id": 33776,
        "name": "IRIDIUM 33 DEB",
        "group": "iridium-33-debris",
        "lat": -1.061298033287873,
        "lon": 74.6384403325773,
        "alt_km": 776.8315489283814,
        "timestamp": "2025-12-27T04:40:45.889720+00:00",
        "meta_object_name": "IRIDIUM 33 DEB",
        "meta_object_id": "1997-051P",
        "meta_epoch": "2025-12-26T22:49:20.747712",
        "meta_mean_motion": 14.3825939,
        "meta_eccentricity": 0.00159081,
        "meta_inclination": 86.403,
        "meta_ra_of_asc_node": 74.8077,
        "meta_arg_of_pericenter": 145.5662,
        "meta_mean_anomaly": 30.8153,
        "meta_ephemeris_type": 0,
        "meta_classification_type": "U",
        "meta_norad_cat_id": 33776,
        "meta_element_set_no": 999,
        "meta_rev_at_epoch": 88286,
        "meta_bstar": 0.00029294427,
        "meta_mean_motion_dot": 9.11e-06,
        "meta_mean_motion_ddot": 0,
        "tle_line1": "1 33776U 97051P   25360.95093458  .00000911  00000+0  29294-3 0  9996",
        "tle_line2": "2 33776  86.4030  74.8077 0015908 145.5662  30.8153 14.38259390882860"
      },
      "geometry": {
        "type": "Point",
        "coordinates": [
          74.6384403325773,
          -1.061298033287873
        ]
      }
    },
    {
      "type": "Feature",
      "properties": {
        "norad_id": 33777,
        "name": "IRIDIUM 33 DEB",
        "group": "iridium-33-debris",
        "lat": -28.188269808454457,
        "lon": 26.967878778477264,
        "alt_km": 716.6236721276828,
        "timestamp": "2025-12-27T04:40:45.889732+00:00",
        "meta_object_name": "IRIDIUM 33 DEB",
        "meta_object_id": "1997-051Q",
        "meta_epoch": "2025-12-26T20:33:37.299744",
        "meta_mean_motion": 14.55711691,
        "meta_eccentricity": 0.00065148,
        "meta_inclination": 86.3775,
        "meta_ra_of_asc_node": 29.0607,
        "meta_arg_of_pericenter": 190.6347,
        "meta_mean_anomaly": 169.4724,
        "meta_ephemeris_type": 0,
        "meta_classification_type": "U",
        "meta_norad_cat_id": 33777,
        "meta_element_set_no": 999,
        "meta_rev_at_epoch": 88739,
        "meta_bstar": 0.00095800363,
        "meta_mean_motion_dot": 4.209e-05,
        "meta_mean_motion_ddot": 0,
        "tle_line1": "1 33777U 97051Q   25360.85668171  .00004209  00000+0  95800-3 0  9996",
        "tle_line2": "2 33777  86.3775  29.0607 0006514 190.6347 169.4724 14.55711691887393"
      },
      "geometry": {
        "type": "Point",
        "coordinates": [
          26.967878778477264,
          -28.188269808454457
        ]
      }
    },
    {
      "type": "Feature",
      "properties": {
        "norad_id": 33850,
        "name": "IRIDIUM 33 DEB",
        "group": "iridium-33-debris",
        "lat": -46.113611478802554,
        "lon": 20.148531380112907,
        "alt_km": 767.3131021210847,
        "timestamp": "2025-12-27T04:40:45.889744+00:00",
        "meta_object_name": "IRIDIUM 33 DEB",
        "meta_object_id": "1997-051T",
        "meta_epoch": "2025-12-26T19:42:08.737344",
        "meta_mean_motion": 14.4218265,
        "meta_eccentricity": 0.00133625,
        "meta_inclination": 86.3409,
        "meta_ra_of_asc_node": 24.124,
        "meta_arg_of_pericenter": 119.2771,
        "meta_mean_anomaly": 53.885,
        "meta_ephemeris_type": 0,
        "meta_classification_type": "U",
        "meta_norad_cat_id": 33850,
        "meta_element_set_no": 999,
        "meta_rev_at_epoch": 88355,
        "meta_bstar": 0.00045325222,
        "meta_mean_motion_dot": 1.513e-05,
        "meta_mean_motion_ddot": 0,
        "tle_line1": "1 33850U 97051T   25360.82093446  .00001513  00000+0  45325-3 0  9994",
        "tle_line2": "2 33850  86.3409  24.1240 0013362 119.2771  53.8850 14.42182650883558"
      },
      "geometry": {
        "type": "Point",
        "coordinates": [
          20.148531380112907,
          -46.113611478802554
        ]
      }
    },
    {
      "type": "Feature",
      "properties": {
        "norad_id": 33853,
        "name": "IRIDIUM 33 DEB",
        "group": "iridium-33-debris",
        "lat": -80.65325344946315,
        "lon": -171.37036877252285,
        "alt_km": 850.4651022301541,
        "timestamp": "2025-12-27T04:40:45.889757+00:00",
        "meta_object_name": "IRIDIUM 33 DEB",
        "meta_object_id": "1997-051W",
        "meta_epoch": "2025-12-26T22:39:28.276128",
        "meta_mean_motion": 13.99129868,
        "meta_eccentricity": 0.02078544,
        "meta_inclination": 86,
        "meta_ra_of_asc_node": 343.582,
        "meta_arg_of_pericenter": 192.009,
        "meta_mean_anomaly": 244.3161,
        "meta_ephemeris_type": 0,
        "meta_classification_type": "U",
        "meta_norad_cat_id": 33853,
        "meta_element_set_no": 999,
        "meta_rev_at_epoch": 85544,
        "meta_bstar": 0.0013824341,
        "meta_mean_motion_dot": 2.427e-05,
        "meta_mean_motion_ddot": 0,
        "tle_line1": "1 33853U 97051W   25360.94407727  .00002427  00000+0  13824-2 0  9994",
        "tle_line2": "2 33853  86.0000 343.5820 0207854 192.0090 244.3161 13.99129868855443"
      },
      "geometry": {
        "type": "Point",
        "coordinates": [
          -171.37036877252285,
          -80.65325344946315
        ]
      }
    }
  ]
}